NORAD_CAT_ID,OBJECT_NAME,OBJECT_TYPE,EPOCH,MEAN_MOTION,ECCENTRICITY,INCLINATION,RA_OF_ASC_NODE,ARG_OF_PERICENTER,MEAN_ANOMALY,BSTAR,MEAN_MOTION_DOT,MEAN_MOTION_DDOT,TLE_LINE0,TLE_LINE1,TLE_LINE2,SEMIMAJOR_AXIS,PERIOD,APOGEE,PERIGEE,DECAYED
53576.0,STARLINK-4581,PAYLOAD,2022-09-20 22:00:01,15.73218669,0.0003429,53.2162,355.7105,8.2325,32.9809,-0.00051145,-0.00071875,0.0,0 STARLINK-4581,1 53576U 22101BB  22263.91668981 -.00071875  00000-0 -51145-3 0  9994,2 53576  53.2162 355.7105 0003429   8.2325  32.9809 15.73218669  5083,6727.842,91.532,352.014,347.4,0.0
53576.0,STARLINK-4581,PAYLOAD,2022-09-21 14:00:01,15.73203407,0.0003577,53.2164,352.4129,5.8085,213.1593,-0.00023015,-0.00032815,0.0,0 STARLINK-4581,1 53576U 22101BB  22264.58334491 -.00032815  00000-0 -23015-3 0  9990,2 53576  53.2164 352.4129 0003577   5.8085 213.1593 15.73203407  5183,6727.885,91.533,352.157,347.344,0.0
53576.0,STARLINK-4581,PAYLOAD,2022-09-21 22:00:00,15.7318242,0.0003546999999999,53.2165,350.7622,3.2878,304.5985,-5.9896e-06,-1.464e-05,0.0,0 STARLINK-4581,1 53576U 22101BB  22264.91667824 -.00001464  00000-0 -59896-5 0  9990,2 53576  53.2165 350.7622 0003547   3.2878 304.5985 15.73182420  1303,6727.945,91.534,352.19699999999995,347.4240000000001,0.0
53576.0,STARLINK-4581,PAYLOAD,2022-09-22 06:00:00,15.73189862,0.000347,53.2169,349.1118,5.6105,31.1773,0.00040579,0.00056703,0.0,0 STARLINK-4581,1 53576U 22101BB  22265.25001157  .00056703  00000-0  40579-3 0  9999,2 53576  53.2169 349.1118 0003470   5.6105  31.1773 15.73189862  5290,6727.924,91.534,352.124,347.454,0.0
53576.0,STARLINK-4581,PAYLOAD,2022-09-22 14:00:01,15.73228914,0.0003799999999999,53.2169,347.4644,4.7753,120.9543,-0.00034929,-0.0004944,0.0,0 STARLINK-4581,1 53576U 22101BB  22265.58334491 -.00049440  00000-0 -34929-3 0  9999,2 53576  53.2169 347.4644 0003800   4.7753 120.9543 15.73228914  1303,6727.813,91.531,352.2340000000001,347.121,0.0
53576.0,STARLINK-4581,PAYLOAD,2022-09-22 22:00:00,15.73236147,0.000373,53.2166,345.8137,4.9699,209.6937,-0.00069111,-0.00096703,0.0,0 STARLINK-4581,1 53576U 22101BB  22265.91667824 -.00096703  00000-0 -69111-3 0  9990,2 53576  53.2166 345.8137 0003730   4.9699 209.6937 15.73236147  1301,6727.792,91.531,352.167,347.148,0.0
53576.0,STARLINK-4581,PAYLOAD,2022-09-23 06:00:00,15.73136845,0.0003602,53.217,344.1593,7.8417,295.783,0.0007065,0.00099467,0.0,0 STARLINK-4581,1 53576U 22101BB  22266.25001157  .00099467  00000-0  70650-3 0  9997,2 53576  53.2170 344.1593 0003602   7.8417 295.7830 15.73136845  5443,6728.075,91.537,352.36400000000015,347.517,0.0
53576.0,STARLINK-4581,PAYLOAD,2022-09-23 14:00:01,15.73187764,0.0003983,53.2166,342.5162,9.4023,23.1147,0.00052468,0.00073648,0.0,0 STARLINK-4581,1 53576U 22101BB  22266.58334491  .00073648  00000-0  52468-3 0  9993,2 53576  53.2166 342.5162 0003983   9.4023  23.1147 15.73187764  1306,6727.93,91.534,352.475,347.115,0.0
53576.0,STARLINK-4581,PAYLOAD,2022-09-23 22:00:00,15.7328112,0.0003875,53.2167,340.8654,8.5541,112.901,-0.0004604,-0.00064996,0.0,0 STARLINK-4581,1 53576U 22101BB  22266.91667824 -.00064996  00000-0 -46040-3 0  9996,2 53576  53.2167 340.8654 0003875   8.5541 112.9010 15.73281120  5557,6727.6640000000025,91.528,352.136,346.922,0.0
53576.0,STARLINK-4581,PAYLOAD,2022-09-24 14:00:01,15.73230236,0.0004118,53.2168,337.5677,5.6286,293.8848,-4.341e-05,-6.724e-05,0.0,0 STARLINK-4581,1 53576U 22101BB  22267.58335648 -.00006724  00000-0 -43410-4 0  9990,2 53576  53.2168 337.5677 0004118   5.6286 293.8848 15.73230236  5652,6727.809,91.531,352.444,346.903,0.0
53576.0,STARLINK-4581,PAYLOAD,2022-09-24 22:00:00,15.73245335,0.0003947,53.2165,335.9167,1.2809,27.1361,-0.00079491,-0.00110999,0.0,0 STARLINK-4581,1 53576U 22101BB  22267.91667824 -.00110999  00000-0 -79491-3 0  9998,2 53576  53.2165 335.9167 0003947   1.2809  27.1361 15.73245335  1309,6727.766,91.531,352.286,346.975,0.0
53576.0,STARLINK-4581,PAYLOAD,2022-09-25 06:00:00,15.73168454,0.0003913,53.2164,334.2671,0.5685,116.7833,0.00038783,0.00054103,0.0,0 STARLINK-4581,1 53576U 22101BB  22268.25001157  .00054103  00000-0  38783-3 0  9998,2 53576  53.2164 334.2671 0003913   0.5685 116.7833 15.73168454  5766,6727.985,91.535,352.483,347.217,0.0
53576.0,STARLINK-4581,PAYLOAD,2022-09-25 14:00:01,15.73212535,0.0004176,53.2164,332.6188,0.1085,206.1561,-0.00018805,-0.0002696,0.0,0 STARLINK-4581,1 53576U 22101BB  22268.58334491 -.00026960  00000-0 -18805-3 0  9999,2 53576  53.2164 332.6188 0004176   0.1085 206.1561 15.73212535  1301,6727.859,91.532,352.534,346.915,0.0
53576.0,STARLINK-4581,PAYLOAD,2022-09-25 22:00:01,15.73162549,0.0003942,53.2164,330.9681,357.0223,298.2489,-0.00012256,-0.00017769,0.0,0 STARLINK-4581,1 53576U 22101BB  22268.91668981 -.00017769  00000-0 -12256-3 0  9991,2 53576  53.2164 330.9681 0003942 357.0223 298.2489 15.73162549  1308,6728.002,91.535,352.519,347.215,0.0
53576.0,STARLINK-4581,PAYLOAD,2022-09-26 12:00:00,15.73170495,0.0004181,53.2162,328.0833,358.8189,1.9052,0.00035347,0.00049233,0.0,0 STARLINK-4581,1 53576U 22101BB  22269.50001157  .00049233  00000-0  35347-3 0  9998,2 53576  53.2162 328.0833 0004181 358.8189   1.9052 15.73170495  5958,6727.979,91.535,352.657,347.031,0.0
53576.0,STARLINK-4581,PAYLOAD,2022-09-26 14:00:01,15.73159685,0.0004228,53.2162,327.6712,358.1891,114.7657,0.00065387,0.00092031,0.0,0 STARLINK-4581,1 53576U 22101BB  22269.58334491  .00092031  00000-0  65387-3 0  9997,2 53576  53.2162 327.6712 0004228 358.1891 114.7657 15.73159685  1301,6728.01,91.536,352.72,347.031,0.0
53576.0,STARLINK-4581,PAYLOAD,2022-09-26 22:00:00,15.73234123,0.0004116,53.2159,326.0198,0.346,201.5374,7.9601e-05,0.00010582,0.0,0 STARLINK-4581,1 53576U 22101BB  22269.91667824  .00010582  00000-0  79601-4 0  9999,2 53576  53.2159 326.0198 0004116   0.3460 201.5374 15.73234123  1304,6727.7980000000025,91.531,352.432,346.894,0.0
53576.0,STARLINK-4581,PAYLOAD,2022-09-27 14:00:01,15.73209312,0.0004301,53.2153,322.7225,3.4609,16.375999999999998,5.2905e-05,6.812e-05,0.0,0 STARLINK-4581,1 53576U 22101BB  22270.58334491  .00006812  00000-0  52905-4 0  9994,2 53576  53.2153 322.7225 0004301   3.4609  16.3760 15.73209312  6125,6727.869000000002,91.533,352.62699999999984,346.84,0.0
53576.0,STARLINK-4581,PAYLOAD,2022-09-27 22:00:01,15.73246808,0.0004096,53.2154,321.0707,1.6472,107.2284,-9.2897e-05,-0.00013674,0.0,0 STARLINK-4581,1 53576U 22101BB  22270.91668981 -.00013674  00000-0 -92897-4 0  9995,2 53576  53.2154 321.0707 0004096   1.6472 107.2284 15.73246808  6180,6727.762,91.53,352.38199999999995,346.871,0.0
53576.0,STARLINK-4581,PAYLOAD,2022-09-28 06:00:00,15.73249407,0.0004079,53.2156,319.4213,1.5285,196.2893,0.00014476,0.00019791,0.0,0 STARLINK-4581,1 53576U 22101BB  22271.25001157  .00019791  00000-0  14476-3 0  9999,2 53576  53.2156 319.4213 0004079   1.5285 196.2893 15.73249407  6235,6727.754,91.53,352.36400000000015,346.875,0.0
53576.0,STARLINK-4581,PAYLOAD,2022-09-28 14:00:01,15.73265574,0.0004263,53.2155,317.7732,358.0534,288.7634,-0.00066394,-0.00093097,0.0,0 STARLINK-4581,1 53576U 22101BB  22271.58334491 -.00093097  00000-0 -66394-3 0  9994,2 53576  53.2155 317.7732 0004263 358.0534 288.7634 15.73265574  1309,6727.708000000001,91.529,352.441,346.705,0.0
53576.0,STARLINK-4581,PAYLOAD,2022-09-28 22:00:00,15.7315715,0.0003931,53.2153,316.1215,354.7849,20.9843,-0.00056386,-0.00078915,0.0,0 STARLINK-4581,1 53576U 22101BB  22271.91667824 -.00078915  00000-0 -56386-3 0  9992,2 53576  53.2153 316.1215 0003931 354.7849  20.9843 15.73157150  6335,6728.017,91.536,352.527,347.23800000000006,0.0
53576.0,STARLINK-4581,PAYLOAD,2022-09-29 14:00:01,15.73063652,0.0004208,53.2147,312.8248,359.0444,194.3625,0.0007177,0.00100765,0.0,0 STARLINK-4581,1 53576U 22101BB  22272.58334491  .00100765  00000-0  71770-3 0  9998,2 53576  53.2147 312.8248 0004208 359.0444 194.3625 15.73063652  6443,6728.284000000002,91.541,352.98,347.3180000000001,0.0
53576.0,STARLINK-4581,PAYLOAD,2022-09-29 22:00:00,15.73111357,0.0004001,53.2149,311.1733,0.2269999999999999,281.9992,0.00061046,0.00085632,0.0,0 STARLINK-4581,1 53576U 22101BB  22272.91667824  .00085632  00000-0  61046-3 0  9994,2 53576  53.2149 311.1733 0004001   0.2270 281.9992 15.73111357  1305,6728.148,91.538,352.705,347.321,0.0
53576.0,STARLINK-4581,PAYLOAD,2022-09-30 06:00:02,15.73191742,0.0004083999999999,53.2152,309.5243,2.5747,8.5708,0.00013218,0.00017967,0.0,0 STARLINK-4581,1 53576U 22101BB  22273.25002315  .00017967  00000-0  13218-3 0  9994,2 53576  53.2152 309.5243 0004084   2.5747   8.5708 15.73191742  6546,6727.919,91.534,352.531,347.036,0.0
53576.0,STARLINK-4581,PAYLOAD,2022-09-30 14:00:01,15.73198686,0.0004346999999999,53.215,307.876,3.0427,96.9719,0.00076777,0.00108569,0.0,0 STARLINK-4581,1 53576U 22101BB  22273.58334491  .00108569  00000-0  76777-3 0  9991,2 53576  53.2150 307.8760 0004347   3.0427  96.9719 15.73198686  1308,6727.899,91.533,352.689,346.839,0.0
53576.0,STARLINK-4581,PAYLOAD,2022-09-30 22:00:00,15.73281006,0.0004107,53.215,306.2243,1.868,187.1304,3.0551e-05,3.681e-05,0.0,0 STARLINK-4581,1 53576U 22101BB  22273.91667824  .00003681  00000-0  30551-4 0  9997,2 53576  53.2150 306.2243 0004107   1.8680 187.1304 15.73281006  6653,6727.6640000000025,91.528,352.292,346.766,0.0
53576.0,STARLINK-4581,PAYLOAD,2022-10-01 14:00:01,15.73262631,0.0004357,53.2144,302.927,357.4347,9.5765,-0.00039311,-0.00055613,0.0,0 STARLINK-4581,1 53576U 22101BB  22274.58334491 -.00055613  00000-0 -39311-3 0  9998,2 53576  53.2144 302.9270 0004357 357.4347   9.5765 15.73262631  6758,6727.717,91.53,352.51300000000015,346.65,0.0
53576.0,STARLINK-4581,PAYLOAD,2022-10-01 22:00:00,15.73192163,0.0003962,53.2146,301.2752,356.2306,99.7752,-0.00034878,-0.00049295,0.0,0 STARLINK-4581,1 53576U 22101BB  22274.91667824 -.00049295  00000-0 -34878-3 0  9996,2 53576  53.2146 301.2752 0003962 356.2306  99.7752 15.73192163  1305,6727.918000000002,91.534,352.4480000000001,347.117,0.0
